NORAD_CAT_ID,OBJECT_NAME,OBJECT_TYPE,EPOCH,MEAN_MOTION,ECCENTRICITY,INCLINATION,RA_OF_ASC_NODE,ARG_OF_PERICENTER,MEAN_ANOMALY,BSTAR,MEAN_MOTION_DOT,MEAN_MOTION_DDOT,TLE_LINE0,TLE_LINE1,TLE_LINE2,SEMIMAJOR_AXIS,PERIOD,APOGEE,PERIGEE,DECAYED
53864.0,STARLINK-4779,PAYLOAD,2022-11-17 22:00:00,15.7314033,0.0003904,53.215,322.4536,359.4248,152.7471,0.00045296,0.00063286,0.0,0 STARLINK-4779,1 53864U 22114AY  22321.91667824  .00063286  00000-0  45296-3 0  9993,2 53864  53.2150 322.4536 0003904 359.4248 152.7471 15.73140330  1308,6728.065,91.537,352.557,347.30400000000014,0.0
53864.0,STARLINK-4779,PAYLOAD,2022-11-18 14:00:01,15.73288381,0.0004192,53.2155,319.1574,359.8604,330.1131,-0.001127,-0.00156577,0.0,0 STARLINK-4779,1 53864U 22114AY  22322.58334491 -.00156577  00000-0 -11270-2 0  9990,2 53864  53.2155 319.1574 0004192 359.8604 330.1131 15.73288381 10100,6727.643,91.528,352.32800000000015,346.68800000000016,0.0
53864.0,STARLINK-4779,PAYLOAD,2022-11-18 22:00:00,15.73210185,0.0003835,53.2147,317.5051,1.7893,57.1586,1.3196e-05,1.229e-05,0.0,0 STARLINK-4779,1 53864U 22114AY  22322.91667824  .00001229  00000-0  13196-4 0  9998,2 53864  53.2147 317.5051 0003835   1.7893  57.1586 15.73210185 10151,6727.866,91.533,352.311,347.151,0.0
53864.0,STARLINK-4779,PAYLOAD,2022-11-19 14:00:01,15.73228932,0.000406,53.2141,314.2075,3.7447,233.0947,-0.00031278,-0.00044367,0.0,0 STARLINK-4779,1 53864U 22114AY  22323.58334491 -.00044367  00000-0 -31278-3 0  9995,2 53864  53.2141 314.2075 0004060   3.7447 233.0947 15.73228932  1305,6727.813,91.531,352.409,346.946,0.0
53864.0,STARLINK-4779,PAYLOAD,2022-11-19 22:00:00,15.73219173,0.0003845,53.2145,312.5561,5.1845,320.5969,-6.3637e-05,-9.557e-05,0.0,0 STARLINK-4779,1 53864U 22114AY  22323.91667824 -.00009557  00000-0 -63637-4 0  9998,2 53864  53.2145 312.5561 0003845   5.1845 320.5969 15.73219173  1301,6727.840999999999,91.532,352.292,347.119,0.0
53864.0,STARLINK-4779,PAYLOAD,2022-11-20 06:00:00,15.73196717,0.0004067,53.2145,310.9084,6.3803,48.3558,-0.00036288,-0.00051262,0.0,0 STARLINK-4779,1 53864U 22114AY  22324.25001157 -.00051262  00000-0 -36288-3 0  9998,2 53864  53.2145 310.9084 0004067   6.3803  48.3558 15.73196717 10360,6727.905,91.533,352.506,347.033,0.0
53864.0,STARLINK-4779,PAYLOAD,2022-11-20 14:00:01,15.73175607,0.0004093,53.2143,309.2583,3.674,139.9577,-0.00042158,-0.00059345,0.0,0 STARLINK-4779,1 53864U 22114AY  22324.58334491 -.00059345  00000-0 -42158-3 0  9997,2 53864  53.2143 309.2583 0004093   3.6740 139.9577 15.73175607  1309,6727.965,91.535,352.583,347.076,0.0
53864.0,STARLINK-4779,PAYLOAD,2022-11-20 22:00:00,15.73131049,0.0003859,53.2143,307.6074,4.5882,227.917,0.00064266,0.00090306,0.0,0 STARLINK-4779,1 53864U 22114AY  22324.91667824  .00090306  00000-0  64266-3 0  9997,2 53864  53.2143 307.6074 0003859   4.5882 227.9170 15.73131049  1301,6728.092,91.537,352.55300000000005,347.36,0.0
53864.0,STARLINK-4779,PAYLOAD,2022-11-21 08:00:01,15.73190803,0.0004129,53.2141,305.5479,5.2053,68.4086,0.00032343,0.00045012,0.0,0 STARLINK-4779,1 53864U 22114AY  22325.33334491  .00045012  00000-0  32343-3 0  9990,2 53864  53.2141 305.5479 0004129   5.2053  68.4086 15.73190803 10536,6727.920999999999,91.534,352.564,347.0080000000001,0.0
53864.0,STARLINK-4779,PAYLOAD,2022-11-21 14:00:01,15.73239813,0.0004031,53.2137,304.3095,3.4724,46.8403,-0.00049302,-0.00069402,0.0,0 STARLINK-4779,1 53864U 22114AY  22325.58334491 -.00069402  00000-0 -49302-3 0  9991,2 53864  53.2137 304.3095 0004031   3.4724  46.8403 15.73239813  1302,6727.781999999997,91.531,352.3590000000001,346.935,0.0
53864.0,STARLINK-4779,PAYLOAD,2022-11-21 22:00:00,15.73198341,0.0003811,53.2141,302.6583,4.15,135.1058,0.00051484,0.00072274,0.0,0 STARLINK-4779,1 53864U 22114AY  22325.91667824  .00072274  00000-0  51484-3 0  9990,2 53864  53.2141 302.6583 0003811   4.1500 135.1058 15.73198341 10639,6727.9,91.533,352.329,347.201,0.0
53864.0,STARLINK-4779,PAYLOAD,2022-11-22 08:00:01,15.73212664,0.0004121,53.2144,300.5986,2.1405,338.326,5.1353e-05,6.595e-05,0.0,0 STARLINK-4779,1 53864U 22114AY  22326.33334491  .00006595  00000-0  51353-4 0  9997,2 53864  53.2144 300.5986 0004121   2.1405 338.3260 15.73212664 10696,6727.859,91.532,352.497,346.952,0.0
53864.0,STARLINK-4779,PAYLOAD,2022-11-22 14:00:01,15.73219845,0.0004032,53.2141,299.36,0.6272,316.612,-0.00028273,-0.00040168,0.0,0 STARLINK-4779,1 53864U 22114AY  22326.58335648 -.00040168  00000-0 -28273-3 0  9999,2 53864  53.2141 299.3600 0004032   0.6272 316.6120 15.73219845  1307,6727.839,91.532,352.416,346.991,0.0
53864.0,STARLINK-4779,PAYLOAD,2022-11-22 22:00:00,15.73227003,0.000389,53.2143,297.7093,2.7719,43.3261,-0.00011412,-0.00016635,0.0,0 STARLINK-4779,1 53864U 22114AY  22326.91667824 -.00016635  00000-0 -11412-3 0  9999,2 53864  53.2143 297.7093 0003890   2.7719  43.3261 15.73227003  1302,6727.818,91.532,352.3,347.066,0.0
53864.0,STARLINK-4779,PAYLOAD,2022-11-23 08:00:01,15.7319352,0.0004144,53.214,295.6497,4.7683,242.5192,5.1459e-05,6.604e-05,0.0,0 STARLINK-4779,1 53864U 22114AY  22327.33334491  .00006604  00000-0  51459-4 0  9996,2 53864  53.2140 295.6497 0004144   4.7683 242.5192 15.73193520 10851,6727.9140000000025,91.534,352.56699999999995,346.991,0.0
53864.0,STARLINK-4779,PAYLOAD,2022-11-23 14:00:01,15.73192697,0.0004017,53.2138,294.411,3.7612,220.222,-0.00014505,-0.00020934,0.0,0 STARLINK-4779,1 53864U 22114AY  22327.58334491 -.00020934  00000-0 -14505-3 0  9997,2 53864  53.2138 294.4110 0004017   3.7612 220.2220 15.73192697  1306,6727.916,91.534,352.4840000000001,347.07800000000015,0.0
53864.0,STARLINK-4779,PAYLOAD,2022-11-23 22:00:00,15.73199811,0.0003832,53.2142,292.7604,4.0388,308.8464,0.00030318,0.00042154,0.0,0 STARLINK-4779,1 53864U 22114AY  22327.91667824  .00042154  00000-0  30318-3 0  9999,2 53864  53.2142 292.7604 0003832   4.0388 308.8464 15.73199811  1306,6727.896,91.533,352.339,347.18300000000005,0.0
53864.0,STARLINK-4779,PAYLOAD,2022-11-24 14:00:01,15.73189256,0.0004034,53.2144,289.462,4.9071,125.8449,-0.0003319,-0.00046947,0.0,0 STARLINK-4779,1 53864U 22114AY  22328.58334491 -.00046947  00000-0 -33190-3 0  9991,2 53864  53.2144 289.4620 0004034   4.9071 125.8449 15.73189256 11057,6727.926,91.534,352.505,347.077,0.0
53864.0,STARLINK-4779,PAYLOAD,2022-11-24 22:00:00,15.73169946,0.0003873,53.2144,287.8119,8.7636,210.875,0.00039476,0.00055091,0.0,0 STARLINK-4779,1 53864U 22114AY  22328.91667824  .00055091  00000-0  39476-3 0  9998,2 53864  53.2144 287.8119 0003873   8.7636 210.8750 15.73169946 11101,6727.981,91.535,352.452,347.24,0.0
53864.0,STARLINK-4779,PAYLOAD,2022-11-25 14:00:01,15.73226198,0.0003906,53.2139,284.5135,7.2629,30.2524,-0.00012829,-0.00018618,0.0,0 STARLINK-4779,1 53864U 22114AY  22329.58334491 -.00018618  00000-0 -12829-3 0  9992,2 53864  53.2139 284.5135 0003906   7.2629  30.2524 15.73226198 11207,6727.82,91.532,352.31300000000016,347.05800000000005,0.0
53864.0,STARLINK-4779,PAYLOAD,2022-11-25 22:00:00,15.73239833,0.0003771,53.2142,282.8634,8.3727,118.0921,0.00045002,0.00063139,0.0,0 STARLINK-4779,1 53864U 22114AY  22329.91667824  .00063139  00000-0  45002-3 0  9993,2 53864  53.2142 282.8634 0003771   8.3727 118.0921 15.73239833 11269,6727.781999999997,91.531,352.184,347.11,0.0
53864.0,STARLINK-4779,PAYLOAD,2022-11-26 06:00:00,15.73269404,0.0004051,53.2143,281.2157,5.8493,209.623,-0.00020058,-0.00028777,0.0,0 STARLINK-4779,1 53864U 22114AY  22330.25001157 -.00028777  00000-0 -20058-3 0  9998,2 53864  53.2143 281.2157 0004051   5.8493 209.6230 15.73269404 11310,6727.696999999999,91.529,352.288,346.837,0.0
53864.0,STARLINK-4779,PAYLOAD,2022-11-26 14:00:01,15.73238906,0.0003909,53.2141,279.5645,4.3873,300.0847,-0.00024414,-0.00034819,0.0,0 STARLINK-4779,1 53864U 22114AY  22330.58334491 -.00034819  00000-0 -24414-3 0  9998,2 53864  53.2141 279.5645 0003909   4.3873 300.0847 15.73238906  1308,6727.784000000002,91.531,352.279,347.019,0.0
53864.0,STARLINK-4779,PAYLOAD,2022-11-26 22:00:00,15.73247261,0.0003835,53.214,277.9147,7.3585,26.0696,-0.00059608,-0.00083662,0.0,0 STARLINK-4779,1 53864U 22114AY  22330.91667824 -.00083662  00000-0 -59608-3 0  9997,2 53864  53.2140 277.9147 0003835   7.3585  26.0696 15.73247261  1308,6727.76,91.53,352.206,347.045,0.0
53864.0,STARLINK-4779,PAYLOAD,2022-11-27 06:00:00,15.73162616,0.0004038,53.2135,276.2671,7.0792,115.3034,-0.00011709,-0.00017006,0.0,0 STARLINK-4779,1 53864U 22114AY  22331.25001157 -.00017006  00000-0 -11709-3 0  9995,2 53864  53.2135 276.2671 0004038   7.0792 115.3034 15.73162616 11476,6728.002,91.535,352.584,347.15,0.0
53864.0,STARLINK-4779,PAYLOAD,2022-11-27 14:00:01,15.73129269,0.0003845,53.2133,274.616,4.5874,206.6669,0.00016038,0.00021884,0.0,0 STARLINK-4779,1 53864U 22114AY  22331.58334491  .00021884  00000-0  16038-3 0  9998,2 53864  53.2133 274.6160 0003845   4.5874 206.6669 15.73129269  1303,6728.097,91.537,352.5490000000001,347.375,0.0
53864.0,STARLINK-4779,PAYLOAD,2022-11-27 22:00:00,15.73159607,0.0003746,53.2134,272.9665,6.3905,293.6997,0.00029525,0.00040957,0.0,0 STARLINK-4779,1 53864U 22114AY  22331.91667824  .00040957  00000-0  29525-3 0  9991,2 53864  53.2134 272.9665 0003746   6.3905 293.6997 15.73159607  1309,6728.01,91.536,352.396,347.355,0.0
53864.0,STARLINK-4779,PAYLOAD,2022-11-28 08:00:01,15.73214079,0.0004006,53.2135,270.9064,4.9976,136.2219,-4.1214e-05,-6.411e-05,0.0,0 STARLINK-4779,1 53864U 22114AY  22332.33334491 -.00006411  00000-0 -41214-4 0  9998,2 53864  53.2135 270.9064 0004006   4.9976 136.2219 15.73214079 11645,6727.855,91.532,352.415,347.025,0.0
53864.0,STARLINK-4779,PAYLOAD,2022-11-28 22:00:01,15.73235186,0.0003744,53.2145,268.0181,4.8552,202.0607,0.00017093,0.00023476,0.0,0 STARLINK-4779,1 53864U 22114AY  22332.91668981  .00023476  00000-0  17093-3 0  9991,2 53864  53.2145 268.0181 0003744   4.8552 202.0607 15.73235186  1308,6727.795,91.531,352.17900000000014,347.141,0.0
